IDEFIX & ARIANE 42P R/B 
1 27422U 02021B   26031.29810227  .00000371  00000+0  15747-3 0  9992
2 27422  98.5835 330.3604 0010896 301.3167  58.6949 14.30997156238673
AQUA                    
1 27424U 02022A   26031.25438111  .00001349  00000+0  27962-3 0  9997
2 27424  98.4107 357.9576 0001770  60.3580  44.2774 14.61878200263263
CZ-4B R/B               
1 27432U 02024C   26031.16058711  .00000054  00000+0  50740-4 0  9995
2 27432  98.8920  84.7417 0050959 129.0105 297.9301 14.14540335223933
MIDORI II (ADEOS-II)    
1 27597U 02056A   26031.28076724  .00000400  00000+0  17501-3 0  9991
2 27597  98.7705 349.5163 0002068  95.6163 264.5255 14.29254330204957
H-2A R/B                
1 27601U 02056E   26031.32281037  .00000405  00000+0  15696-3 0  9995
2 27601  98.3134 353.1268 0069033 273.1320 259.5722 14.33731495208757
CZ-4B R/B               
1 28059U 03049C   26031.24852206  .00000607  00000+0  15074-3 0  9993
2 28059  98.6835  24.6973 0047979 347.3888  12.6104 14.54975098181155
CZ-2C R/B               
1 28222U 04012C   26031.26787215  .00044421  00000+0  53990-3 0  9996
2 28222  97.7332  93.1264 0016675  89.4012 270.9155 15.60281700198437
SL-16 R/B               
1 28353U 04021B   26031.19142231 -.00000193  00000+0 -75843-4 0  9998
2 28353  71.0015 311.1881 0002666 103.6398 256.5022 14.14589870117536
CZ-4B R/B               
1 28415U 04035C   26031.07514193  .00007722  00000+0  27748-3 0  9992
2 28415  97.3557  65.7790 0034345 101.7037 258.8060 15.28353670174168
CZ-2C R/B               
1 28480U 04046B   26031.25238102  .00000217  00000+0  96641-4 0  9990
2 28480  98.1999 308.5604 0138215 265.6103  92.9277 14.26977466103167
ARIANE 5 R/B            
1 28499U 04049H   26031.17479463  .00001421  00000+0  16235-3 0  9999
2 28499  98.2567 198.2442 0085407 112.3956 248.6334 14.85180425140229
CZ-2D R/B               
1 28738U 05024B   26031.27561527  .00035127  00000+0  48849-3 0  9999
2 28738  97.3613  45.1451 0006608 137.9293 222.2471 15.56884704133952
