CCSDS_OMM_VERS = 2.0
CREATION_DATE  = 
ORIGINATOR     = 

OBJECT_NAME    = IDEFIX & ARIANE 42P R/B
OBJECT_ID      = 2002-021B
CENTER_NAME    = EARTH
REF_FRAME      = TEME
TIME_SYSTEM    = UTC
MEAN_ELEMENT_THEORY = SGP/SGP4

EPOCH          = 2026-01-31T07:09:16.036128
MEAN_MOTION    = 14.30997156
ECCENTRICITY   = .00108967
INCLINATION    = 98.5835
RA_OF_ASC_NODE = 330.3604
ARG_OF_PERICENTER = 301.3167
MEAN_ANOMALY   = 58.6949

EPHEMERIS_TYPE = 0
CLASSIFICATION_TYPE = U
NORAD_CAT_ID   = 27422
ELEMENT_SET_NO = 999
REV_AT_EPOCH   = 23867
BSTAR          = .15746592E-3
MEAN_MOTION_DOT = .371E-5
MEAN_MOTION_DDOT = 0

CCSDS_OMM_VERS = 2.0
CREATION_DATE  = 
ORIGINATOR     = 

OBJECT_NAME    = AQUA
OBJECT_ID      = 2002-022A
CENTER_NAME    = EARTH
REF_FRAME      = TEME
TIME_SYSTEM    = UTC
MEAN_ELEMENT_THEORY = SGP/SGP4

EPOCH          = 2026-01-31T06:06:18.527904
MEAN_MOTION    = 14.61878200
ECCENTRICITY   = .00017703
INCLINATION    = 98.4107
RA_OF_ASC_NODE = 357.9576
ARG_OF_PERICENTER = 60.3580
MEAN_ANOMALY   = 44.2774

EPHEMERIS_TYPE = 0
CLASSIFICATION_TYPE = U
NORAD_CAT_ID   = 27424
ELEMENT_SET_NO = 999
REV_AT_EPOCH   = 26326
BSTAR          = .27961896E-3
MEAN_MOTION_DOT = .1349E-4
MEAN_MOTION_DDOT = 0

CCSDS_OMM_VERS = 2.0
CREATION_DATE  = 
ORIGINATOR     = 

OBJECT_NAME    = CZ-4B R/B
OBJECT_ID      = 2002-024C
CENTER_NAME    = EARTH
REF_FRAME      = TEME
TIME_SYSTEM    = UTC
MEAN_ELEMENT_THEORY = SGP/SGP4

EPOCH          = 2026-01-31T03:51:14.726304
MEAN_MOTION    = 14.14540335
ECCENTRICITY   = .00509596
INCLINATION    = 98.8920
RA_OF_ASC_NODE = 84.7417
ARG_OF_PERICENTER = 129.0105
MEAN_ANOMALY   = 297.9301

EPHEMERIS_TYPE = 0
CLASSIFICATION_TYPE = U
NORAD_CAT_ID   = 27432
ELEMENT_SET_NO = 999
REV_AT_EPOCH   = 22393
BSTAR          = .50740265E-4
MEAN_MOTION_DOT = .54E-6
MEAN_MOTION_DDOT = 0

CCSDS_OMM_VERS = 2.0
CREATION_DATE  = 
ORIGINATOR     = 

OBJECT_NAME    = MIDORI II (ADEOS-II)
OBJECT_ID      = 2002-056A
CENTER_NAME    = EARTH
REF_FRAME      = TEME
TIME_SYSTEM    = UTC
MEAN_ELEMENT_THEORY = SGP/SGP4

EPOCH          = 2026-01-31T06:44:18.289536
MEAN_MOTION    = 14.29254330
ECCENTRICITY   = .00020684
INCLINATION    = 98.7705
RA_OF_ASC_NODE = 349.5163
ARG_OF_PERICENTER = 95.6163
MEAN_ANOMALY   = 264.5255

EPHEMERIS_TYPE = 0
CLASSIFICATION_TYPE = U
NORAD_CAT_ID   = 27597
ELEMENT_SET_NO = 999
REV_AT_EPOCH   = 20495
BSTAR          = .1750078E-3
MEAN_MOTION_DOT = .4E-5
MEAN_MOTION_DDOT = 0

CCSDS_OMM_VERS = 2.0
CREATION_DATE  = 
ORIGINATOR     = 

OBJECT_NAME    = H-2A R/B
OBJECT_ID      = 2002-056E
CENTER_NAME    = EARTH
REF_FRAME      = TEME
TIME_SYSTEM    = UTC
MEAN_ELEMENT_THEORY = SGP/SGP4

EPOCH          = 2026-01-31T07:44:50.815968
MEAN_MOTION    = 14.33731495
ECCENTRICITY   = .00690338
INCLINATION    = 98.3134
RA_OF_ASC_NODE = 353.1268
ARG_OF_PERICENTER = 273.1320
MEAN_ANOMALY   = 259.5722

EPHEMERIS_TYPE = 0
CLASSIFICATION_TYPE = U
NORAD_CAT_ID   = 27601
ELEMENT_SET_NO = 999
REV_AT_EPOCH   = 20875
BSTAR          = .15695715E-3
MEAN_MOTION_DOT = .405E-5
MEAN_MOTION_DDOT = 0

CCSDS_OMM_VERS = 2.0
CREATION_DATE  = 
ORIGINATOR     = 

OBJECT_NAME    = CZ-4B R/B
OBJECT_ID      = 2003-049C
CENTER_NAME    = EARTH
REF_FRAME      = TEME
TIME_SYSTEM    = UTC
MEAN_ELEMENT_THEORY = SGP/SGP4

EPOCH          = 2026-01-31T05:57:52.305984
MEAN_MOTION    = 14.54975098
ECCENTRICITY   = .00479798
INCLINATION    = 98.6835
RA_OF_ASC_NODE = 24.6973
ARG_OF_PERICENTER = 347.3888
MEAN_ANOMALY   = 12.6104

EPHEMERIS_TYPE = 0
CLASSIFICATION_TYPE = U
NORAD_CAT_ID   = 28059
ELEMENT_SET_NO = 999
REV_AT_EPOCH   = 18115
BSTAR          = .15074323E-3
MEAN_MOTION_DOT = .607E-5
MEAN_MOTION_DDOT = 0

CCSDS_OMM_VERS = 2.0
CREATION_DATE  = 
ORIGINATOR     = 

OBJECT_NAME    = CZ-2C R/B
OBJECT_ID      = 2004-012C
CENTER_NAME    = EARTH
REF_FRAME      = TEME
TIME_SYSTEM    = UTC
MEAN_ELEMENT_THEORY = SGP/SGP4

EPOCH          = 2026-01-31T06:25:44.153760
MEAN_MOTION    = 15.60281700
ECCENTRICITY   = .0016675
INCLINATION    = 97.7332
RA_OF_ASC_NODE = 93.1264
ARG_OF_PERICENTER = 89.4012
MEAN_ANOMALY   = 270.9155

EPHEMERIS_TYPE = 0
CLASSIFICATION_TYPE = U
NORAD_CAT_ID   = 28222
ELEMENT_SET_NO = 999
REV_AT_EPOCH   = 19843
BSTAR          = .53990129E-3
MEAN_MOTION_DOT = .44421E-3
MEAN_MOTION_DDOT = 0

CCSDS_OMM_VERS = 2.0
CREATION_DATE  = 
ORIGINATOR     = 

OBJECT_NAME    = SL-16 R/B
OBJECT_ID      = 2004-021B
CENTER_NAME    = EARTH
REF_FRAME      = TEME
TIME_SYSTEM    = UTC
MEAN_ELEMENT_THEORY = SGP/SGP4

EPOCH          = 2026-01-31T04:35:38.887584
MEAN_MOTION    = 14.14589870
ECCENTRICITY   = .00026666
INCLINATION    = 71.0015
RA_OF_ASC_NODE = 311.1881
ARG_OF_PERICENTER = 103.6398
MEAN_ANOMALY   = 256.5022

EPHEMERIS_TYPE = 0
CLASSIFICATION_TYPE = U
NORAD_CAT_ID   = 28353
ELEMENT_SET_NO = 999
REV_AT_EPOCH   = 11753
BSTAR          = -.75842699E-4
MEAN_MOTION_DOT = -.193E-5
MEAN_MOTION_DDOT = 0

CCSDS_OMM_VERS = 2.0
CREATION_DATE  = 
ORIGINATOR     = 

OBJECT_NAME    = CZ-4B R/B
OBJECT_ID      = 2004-035C
CENTER_NAME    = EARTH
REF_FRAME      = TEME
TIME_SYSTEM    = UTC
MEAN_ELEMENT_THEORY = SGP/SGP4

EPOCH          = 2026-01-31T01:48:12.262752
MEAN_MOTION    = 15.28353670
ECCENTRICITY   = .00343452
INCLINATION    = 97.3557
RA_OF_ASC_NODE = 65.7790
ARG_OF_PERICENTER = 101.7037
MEAN_ANOMALY   = 258.8060

EPHEMERIS_TYPE = 0
CLASSIFICATION_TYPE = U
NORAD_CAT_ID   = 28415
ELEMENT_SET_NO = 999
REV_AT_EPOCH   = 17416
BSTAR          = .27748321E-3
MEAN_MOTION_DOT = .7722E-4
MEAN_MOTION_DDOT = 0

CCSDS_OMM_VERS = 2.0
CREATION_DATE  = 
ORIGINATOR     = 

OBJECT_NAME    = CZ-2C R/B
OBJECT_ID      = 2004-046B
CENTER_NAME    = EARTH
REF_FRAME      = TEME
TIME_SYSTEM    = UTC
MEAN_ELEMENT_THEORY = SGP/SGP4

EPOCH          = 2026-01-31T06:03:25.720128
MEAN_MOTION    = 14.26977466
ECCENTRICITY   = .01382154
INCLINATION    = 98.1999
RA_OF_ASC_NODE = 308.5604
ARG_OF_PERICENTER = 265.6103
MEAN_ANOMALY   = 92.9277

EPHEMERIS_TYPE = 0
CLASSIFICATION_TYPE = U
NORAD_CAT_ID   = 28480
ELEMENT_SET_NO = 999
REV_AT_EPOCH   = 10316
BSTAR          = .96640881E-4
MEAN_MOTION_DOT = .217E-5
MEAN_MOTION_DDOT = 0

CCSDS_OMM_VERS = 2.0
CREATION_DATE  = 
ORIGINATOR     = 

OBJECT_NAME    = ARIANE 5 R/B
OBJECT_ID      = 2004-049H
CENTER_NAME    = EARTH
REF_FRAME      = TEME
TIME_SYSTEM    = UTC
MEAN_ELEMENT_THEORY = SGP/SGP4

EPOCH          = 2026-01-31T04:11:42.256032
MEAN_MOTION    = 14.85180425
ECCENTRICITY   = .0085407
INCLINATION    = 98.2567
RA_OF_ASC_NODE = 198.2442
ARG_OF_PERICENTER = 112.3956
MEAN_ANOMALY   = 248.6334

EPHEMERIS_TYPE = 0
CLASSIFICATION_TYPE = U
NORAD_CAT_ID   = 28499
ELEMENT_SET_NO = 999
REV_AT_EPOCH   = 14022
BSTAR          = .16235135E-3
MEAN_MOTION_DOT = .1421E-4
MEAN_MOTION_DDOT = 0

CCSDS_OMM_VERS = 2.0
CREATION_DATE  = 
ORIGINATOR     = 

OBJECT_NAME    = CZ-2D R/B
OBJECT_ID      = 2005-024B
CENTER_NAME    = EARTH
REF_FRAME      = TEME
TIME_SYSTEM    = UTC
MEAN_ELEMENT_THEORY = SGP/SGP4

EPOCH          = 2026-01-31T06:36:53.159328
MEAN_MOTION    = 15.56884704
ECCENTRICITY   = .00066086
INCLINATION    = 97.3613
RA_OF_ASC_NODE = 45.1451
ARG_OF_PERICENTER = 137.9293
MEAN_ANOMALY   = 222.2471

EPHEMERIS_TYPE = 0
CLASSIFICATION_TYPE = U
NORAD_CAT_ID   = 28738
ELEMENT_SET_NO = 999
REV_AT_EPOCH   = 13395
BSTAR          = .48849178E-3
MEAN_MOTION_DOT = .35127E-3
MEAN_MOTION_DDOT = 0

